OBJECT_NAME,OBJECT_ID,EPOCH,MEAN_MOTION,ECCENTRICITY,INCLINATION,RA_OF_ASC_NODE,ARG_OF_PERICENTER,MEAN_ANOMALY,EPHEMERIS_TYPE,CLASSIFICATION_TYPE,NORAD_CAT_ID,ELEMENT_SET_NO,REV_AT_EPOCH,BSTAR,MEAN_MOTION_DOT,MEAN_MOTION_DDOT
CUBEBUG-2 (LO-74),2013-066AA,2026-07-13T20:32:08.034720,14.93961470,.0055843,97.8911,143.9522,299.8965,59.6713,0,U,39440,999,68097,.18634E-3,.1982E-4,0
FUNCUBE-1 (AO-73),2013-066AE,2026-07-13T23:12:42.108192,15.09809112,.0038025,97.8287,166.9802,111.5957,248.9329,0,U,39444,999,68370,.22382E-3,.3609E-4,0
UWE-3,2013-066AG,2026-07-13T19:35:44.816352,14.97193233,.0047496,97.8703,151.0751,229.2786,130.4306,0,U,39446,999,68156,.16225E-3,.1855E-4,0
UNISAT-6,2014-033C,2026-07-13T23:00:25.936128,14.88363714,.0044277,97.7907,347.2055,341.9185,18.0454,0,U,40012,999,65014,.12894E-3,.1158E-4,0
DUCHIFAT-1,2014-033M,2026-07-14T03:37:28.687872,15.70816354,.000257,98.0414,258.2325,244.3653,115.7342,0,U,40021,999,65997,.80375E-3,.100682E-2,0
QB50P1,2014-033R,2026-07-13T13:48:00.540864,15.18651217,.0010293,98.0963,207.5784,129.5975,230.6167,0,U,40025,999,65703,.24591E-3,.5023E-4,0
LILACSAT-2,2015-049K,2026-07-14T03:50:47.476608,15.52336114,.0008363,97.4624,233.0387,144.5879,215.5930,0,U,40908,999,59993,.21186E-3,.1282E-3,0
FOX-1A (AO-85),2015-058D,2026-07-14T04:21:11.801376,14.91084963,.0132264,64.7724,195.0853,46.1915,315.0044,0,U,40967,999,11759,.16126E-3,.1712E-4,0
CAS-2T & KS-1Q,2016-066G,2026-07-14T04:21:32.777568,14.44769101,.0342292,98.3813,270.6089,47.8306,315.1423,0,U,41847,999,50869,.87908E-4,.568E-5,0
RADFXSAT (FOX-1B),2017-073E,2026-07-14T03:02:56.387328,15.13052032,.0148209,97.4668,61.7931,235.2076,123.5134,0,U,43017,999,46946,.18661E-3,.4246E-4,0
DIWATA-2B,2018-084H,2026-07-14T04:15:25.494624,15.00560838,.0012888,98.1214,32.5677,87.3874,272.8824,0,U,43678,999,42026,.96416E-4,.1152E-4,0
ES'HAIL 2,2018-090A,2026-07-14T03:16:23.954304,1.00270304,.000216,0.0180,33.3857,125.7382,207.7573,0,U,43700,999,2794,0,.138E-5,0
FOX-1CLIFF (AO-95),2018-099N,2026-07-14T03:24:01.068192,15.27260267,.0007177,97.4374,255.2963,244.6856,115.3640,0,U,43770,999,41733,.24788E-3,.6551E-4,0
ITASAT,2018-099AE,2026-07-14T02:12:54.010656,15.19374072,.0010814,97.4016,246.0701,254.8802,105.1236,0,U,43786,999,41699,.19599E-3,.4083E-4,0
JY1SAT (JO-97),2018-099AX,2026-07-14T03:57:57.676032,15.34498350,.000675,97.4121,258.1063,161.0997,199.0497,0,U,43803,999,41776,.30106E-3,.9989E-4,0
UWE-4,2018-111E,2026-07-13T19:13:02.850816,15.47760123,.0005951,97.5848,124.4503,200.2503,159.8511,0,U,43880,999,41489,.38928E-3,.20115E-3,0
TIANYAN 01,2019-093C,2026-07-14T04:06:42.376320,14.86562658,.0013683,97.7531,266.7442,5.1756,354.9598,0,U,44881,999,35542,.11955E-3,.1007E-4,0
RS-44 & BREEZE-KM R/B,2019-096E,2026-07-13T19:42:27.753984,12.79748918,.0218543,82.5240,322.0071,82.1898,280.3952,0,U,44909,999,30575,-.51609E-4,0,0
SALSAT,2020-068K,2026-07-13T23:02:43.510848,15.30161661,.0009069,97.8856,199.6626,197.5036,162.5892,0,U,46495,999,31945,.15597E-3,.4471E-4,0
XW-3 (CAS-9),2021-131B,2026-07-14T04:44:04.578144,14.41381168,.0004655,98.4992,287.4412,33.2148,326.9332,0,U,50466,999,23900,.89471E-4,.246E-5,0
GREENCUBE (IO-117),2022-080E,2026-07-12T17:00:29.177856,6.42583319,.00090302,70.1415,289.3709,284.1311,75.8345,0,U,53109,999,9370,0,-.3E-7,0
UMKA 1 (RS40S),2023-091G,2026-07-14T04:46:45.702048,15.21114664,.0013168,97.5039,253.7952,32.8184,327.3866,0,U,57172,999,16811,.15237E-3,.3326E-4,0
CUBESX-HSE 3 (RS42S),2023-091N,2026-07-14T03:46:29.472384,15.31868953,.000978,97.5083,261.0953,5.7659,354.3693,0,U,57178,999,16855,.24803E-3,.7562E-4,0
MONITOR-3 (RS58S),2023-091Q,2026-07-14T04:14:51.210240,15.28361019,.0011098,97.5073,258.8284,13.2925,346.8605,0,U,57180,999,16841,.22536E-3,.6157E-4,0
MONITOR-4 (RS57S),2023-091S,2026-07-14T03:42:31.868928,15.28447668,.0011091,97.5068,258.7783,13.7926,346.3614,0,U,57182,999,16841,.23379E-3,.6408E-4,0
MONITOR-2 (RS39S),2023-091U,2026-07-14T04:32:05.145216,15.19149041,.001151,97.5061,253.2990,27.4106,332.7733,0,U,57184,999,16805,.13308E-3,.2731E-4,0
SVYATOBOR 1 (RS60S),2023-091X,2026-07-14T04:35:48.015744,15.27053375,.0008832,97.5080,259.1636,8.3095,351.8288,0,U,57187,999,16843,.20272E-3,.531E-4,0
VIZARD-METEO (RS38S),2023-091Z,2026-07-14T04:12:29.668032,15.36854708,.0005742,97.5085,265.2153,343.8040,16.3019,0,U,57189,999,16883,.26385E-3,.9427E-4,0
POLYTECH-UNIVERSE 3 (RS46S),2023-091AB,2026-07-14T03:31:07.339008,15.19361154,.0016163,97.5035,252.7611,41.1027,319.1422,0,U,57191,999,16804,.13381E-3,.2768E-4,0
UTMN 2 (RS27S),2023-091AP,2026-07-14T03:50:52.880064,15.32686855,.0006842,97.5080,262.7650,354.1235,5.9925,0,U,57203,999,16867,.23649E-3,.7389E-4,0
