CUBEBUG-2 (LO-74)       
1 39440U 13066AA  26194.85564855  .00001982  00000+0  18634-3 0  9998
2 39440  97.8911 143.9522 0055843 299.8965  59.6713 14.93961470680971
FUNCUBE-1 (AO-73)       
1 39444U 13066AE  26194.96715403  .00003609  00000+0  22382-3 0  9994
2 39444  97.8287 166.9802 0038025 111.5957 248.9329 15.09809112683703
UWE-3                   
1 39446U 13066AG  26194.81649093  .00001855  00000+0  16225-3 0  9991
2 39446  97.8703 151.0751 0047496 229.2786 130.4306 14.97193233681563
UNISAT-6                
1 40012U 14033C   26194.95863352  .00001158  00000+0  12894-3 0  9992
2 40012  97.7907 347.2055 0044277 341.9185  18.0454 14.88363714650142
DUCHIFAT-1              
1 40021U 14033M   26195.15102648  .00100682  00000+0  80375-3 0  9990
2 40021  98.0414 258.2325 0002570 244.3653 115.7342 15.70816354659972
QB50P1                  
1 40025U 14033R   26194.57500626  .00005023  00000+0  24591-3 0  9998
2 40025  98.0963 207.5784 0010293 129.5975 230.6167 15.18651217657037
LILACSAT-2              
1 40908U 15049K   26195.16027172  .00012820  00000+0  21186-3 0  9992
2 40908  97.4624 233.0387 0008363 144.5879 215.5930 15.52336114599930
FOX-1A (AO-85)          
1 40967U 15058D   26195.18138659  .00001712  00000+0  16126-3 0  9998
2 40967  64.7724 195.0853 0132264  46.1915 315.0044 14.91084963117598
CAS-2T & KS-1Q          
1 41847U 16066G   26195.18162937  .00000568  00000+0  87908-4 0  9997
2 41847  98.3813 270.6089 0342292  47.8306 315.1423 14.44769101508694
RADFXSAT (FOX-1B)       
1 43017U 17073E   26195.12704152  .00004246  00000+0  18661-3 0  9998
2 43017  97.4668  61.7931 0148209 235.2076 123.5134 15.13052032469463
DIWATA-2B               
1 43678U 18084H   26195.17737841  .00001152  00000+0  96416-4 0  9998
2 43678  98.1214  32.5677 0012888  87.3874 272.8824 15.00560838420262
ES'HAIL 2               
1 43700U 18090A   26195.13638836  .00000138  00000+0  00000+0 0  9993
2 43700   0.0180  33.3857 0002160 125.7382 207.7573  1.00270304 27941
FOX-1CLIFF (AO-95)      
1 43770U 18099N   26195.14167903  .00006551  00000+0  24788-3 0  9990
2 43770  97.4374 255.2963 0007177 244.6856 115.3640 15.27260267417332
ITASAT                  
1 43786U 18099AE  26195.09229179  .00004083  00000+0  19599-3 0  9997
2 43786  97.4016 246.0701 0010814 254.8802 105.1236 15.19374072416996
JY1SAT (JO-97)          
1 43803U 18099AX  26195.16525088  .00009989  00000+0  30106-3 0  9990
2 43803  97.4121 258.1063 0006750 161.0997 199.0497 15.34498350417766
UWE-4                   
1 43880U 18111E   26194.80072744  .00020115  00000+0  38928-3 0  9990
2 43880  97.5848 124.4503 0005951 200.2503 159.8511 15.47760123414899
TIANYAN 01              
1 44881U 19093C   26195.17132380  .00001007  00000+0  11955-3 0  9996
2 44881  97.7531 266.7442 0013683   5.1756 354.9598 14.86562658355428
RS-44 & BREEZE-KM R/B   
1 44909U 19096E   26194.82115456  .00000000  00000+0 -51609-4 0  9990
2 44909  82.5240 322.0071 0218543  82.1898 280.3952 12.79748918305758
SALSAT                  
1 46495U 20068K   26194.96022582  .00004471  00000+0  15597-3 0  9995
2 46495  97.8856 199.6626 0009069 197.5036 162.5892 15.30161661319452
XW-3 (CAS-9)            
1 50466U 21131B   26195.19727521  .00000246  00000+0  89471-4 0  9990
2 50466  98.4992 287.4412 0004655  33.2148 326.9332 14.41381168239002
GREENCUBE (IO-117)      
1 53109U 22080E   26193.70867104 -.00000003  00000+0  00000+0 0  9996
2 53109  70.1415 289.3709 0009030 284.1311  75.8345  6.42583319 93700
UMKA 1 (RS40S)          
1 57172U 23091G   26195.19914007  .00003326  00000+0  15237-3 0  9995
2 57172  97.5039 253.7952 0013168  32.8184 327.3866 15.21114664168118
CUBESX-HSE 3 (RS42S)    
1 57178U 23091N   26195.15728556  .00007562  00000+0  24803-3 0  9994
2 57178  97.5083 261.0953 0009780   5.7659 354.3693 15.31868953168551
MONITOR-3 (RS58S)       
1 57180U 23091Q   26195.17698160  .00006157  00000+0  22536-3 0  9996
2 57180  97.5073 258.8284 0011098  13.2925 346.8605 15.28361019168410
MONITOR-4 (RS57S)       
1 57182U 23091S   26195.15453552  .00006408  00000+0  23379-3 0  9995
2 57182  97.5068 258.7783 0011091  13.7926 346.3614 15.28447668168418
MONITOR-2 (RS39S)       
1 57184U 23091U   26195.18894844  .00002731  00000+0  13308-3 0  9999
2 57184  97.5061 253.2990 0011510  27.4106 332.7733 15.19149041168056
SVYATOBOR 1 (RS60S)     
1 57187U 23091X   26195.19152796  .00005310  00000+0  20272-3 0  9990
2 57187  97.5080 259.1636 0008832   8.3095 351.8288 15.27053375168432
VIZARD-METEO (RS38S)    
1 57189U 23091Z   26195.17534338  .00009427  00000+0  26385-3 0  9990
2 57189  97.5085 265.2153 0005742 343.8040  16.3019 15.36854708168833
POLYTECH-UNIVERSE 3 (R*)
1 57191U 23091AB  26195.14661272  .00002768  00000+0  13381-3 0  9991
2 57191  97.5035 252.7611 0016163  41.1027 319.1422 15.19361154168047
UTMN 2 (RS27S)          
1 57203U 23091AP  26195.16033426  .00007389  00000+0  23649-3 0  9993
2 57203  97.5080 262.7650 0006842 354.1235   5.9925 15.32686855168676
